KUIPER-00251            
1 67156U 25301Z   26024.67021565  .00069871  00000+0  19554-2 0  9998
2 67156  51.8730 278.2025 0010736 236.2462 123.7502 15.35953182  7154
KUIPER-00252            
1 67157U 25301AA  26025.65705868  .00045444  00000+0  12905-2 0  9996
2 67157  51.8663 273.5626 0009796 249.4588 110.5347 15.35697459  7113
KUIPER-00261            
1 67158U 25301AB  26023.73956524  .00039745  00000+0  10901-2 0  9992
2 67158  51.8684 282.4808 0007136 217.2277 142.8216 15.36863797  6823
KUIPER-00265            
1 67159U 25301AC  26025.58334491  .00009408  00000+0  84579-3 0  9997
2 67159  51.8911 276.6313 0002616 235.6731 234.1201 14.96256391  5087
