<?xml version="1.0" encoding="UTF-8"?>
<ndm xmlns:xsi="http://www.w3.org/2001/XMLSchema-instance" xsi:noNamespaceSchemaLocation="https://sanaregistry.org/r/ndmxml_unqualified/ndmxml-2.0.0-master-2.0.xsd">
<omm id="CCSDS_OMM_VERS" version="2.0">
<header><CREATION_DATE/><ORIGINATOR/></header><body><segment><metadata><OBJECT_NAME>KUIPER-00251</OBJECT_NAME><OBJECT_ID>2025-301Z</OBJECT_ID><CENTER_NAME>EARTH</CENTER_NAME><REF_FRAME>TEME</REF_FRAME><TIME_SYSTEM>UTC</TIME_SYSTEM><MEAN_ELEMENT_THEORY>SGP4</MEAN_ELEMENT_THEORY></metadata><data><meanElements><EPOCH>2026-01-24T16:05:06.632160</EPOCH><MEAN_MOTION>15.35953182</MEAN_MOTION><ECCENTRICITY>.00107367</ECCENTRICITY><INCLINATION>51.8730</INCLINATION><RA_OF_ASC_NODE>278.2025</RA_OF_ASC_NODE><ARG_OF_PERICENTER>236.2462</ARG_OF_PERICENTER><MEAN_ANOMALY>123.7502</MEAN_ANOMALY></meanElements><tleParameters><EPHEMERIS_TYPE>0</EPHEMERIS_TYPE><CLASSIFICATION_TYPE>U</CLASSIFICATION_TYPE><NORAD_CAT_ID>67156</NORAD_CAT_ID><ELEMENT_SET_NO>999</ELEMENT_SET_NO><REV_AT_EPOCH>715</REV_AT_EPOCH><BSTAR>.19553591E-2</BSTAR><MEAN_MOTION_DOT>.69871E-3</MEAN_MOTION_DOT><MEAN_MOTION_DDOT>0</MEAN_MOTION_DDOT></tleParameters></data></segment></body></omm>
<omm id="CCSDS_OMM_VERS" version="2.0">
<header><CREATION_DATE/><ORIGINATOR/></header><body><segment><metadata><OBJECT_NAME>KUIPER-00252</OBJECT_NAME><OBJECT_ID>2025-301AA</OBJECT_ID><CENTER_NAME>EARTH</CENTER_NAME><REF_FRAME>TEME</REF_FRAME><TIME_SYSTEM>UTC</TIME_SYSTEM><MEAN_ELEMENT_THEORY>SGP4</MEAN_ELEMENT_THEORY></metadata><data><meanElements><EPOCH>2026-01-25T15:46:09.869952</EPOCH><MEAN_MOTION>15.35697459</MEAN_MOTION><ECCENTRICITY>.00097968</ECCENTRICITY><INCLINATION>51.8663</INCLINATION><RA_OF_ASC_NODE>273.5626</RA_OF_ASC_NODE><ARG_OF_PERICENTER>249.4588</ARG_OF_PERICENTER><MEAN_ANOMALY>110.5347</MEAN_ANOMALY></meanElements><tleParameters><EPHEMERIS_TYPE>0</EPHEMERIS_TYPE><CLASSIFICATION_TYPE>U</CLASSIFICATION_TYPE><NORAD_CAT_ID>67157</NORAD_CAT_ID><ELEMENT_SET_NO>999</ELEMENT_SET_NO><REV_AT_EPOCH>711</REV_AT_EPOCH><BSTAR>.12905468E-2</BSTAR><MEAN_MOTION_DOT>.45444E-3</MEAN_MOTION_DOT><MEAN_MOTION_DDOT>0</MEAN_MOTION_DDOT></tleParameters></data></segment></body></omm>
<omm id="CCSDS_OMM_VERS" version="2.0">
<header><CREATION_DATE/><ORIGINATOR/></header><body><segment><metadata><OBJECT_NAME>KUIPER-00261</OBJECT_NAME><OBJECT_ID>2025-301AB</OBJECT_ID><CENTER_NAME>EARTH</CENTER_NAME><REF_FRAME>TEME</REF_FRAME><TIME_SYSTEM>UTC</TIME_SYSTEM><MEAN_ELEMENT_THEORY>SGP4</MEAN_ELEMENT_THEORY></metadata><data><meanElements><EPOCH>2026-01-23T17:44:58.436736</EPOCH><MEAN_MOTION>15.36863797</MEAN_MOTION><ECCENTRICITY>.00071362</ECCENTRICITY><INCLINATION>51.8684</INCLINATION><RA_OF_ASC_NODE>282.4808</RA_OF_ASC_NODE><ARG_OF_PERICENTER>217.2277</ARG_OF_PERICENTER><MEAN_ANOMALY>142.8216</MEAN_ANOMALY></meanElements><tleParameters><EPHEMERIS_TYPE>0</EPHEMERIS_TYPE><CLASSIFICATION_TYPE>U</CLASSIFICATION_TYPE><NORAD_CAT_ID>67158</NORAD_CAT_ID><ELEMENT_SET_NO>999</ELEMENT_SET_NO><REV_AT_EPOCH>682</REV_AT_EPOCH><BSTAR>.10901399E-2</BSTAR><MEAN_MOTION_DOT>.39745E-3</MEAN_MOTION_DOT><MEAN_MOTION_DDOT>0</MEAN_MOTION_DDOT></tleParameters></data></segment></body></omm>
<omm id="CCSDS_OMM_VERS" version="2.0">
<header><CREATION_DATE/><ORIGINATOR/></header><body><segment><metadata><OBJECT_NAME>KUIPER-00265</OBJECT_NAME><OBJECT_ID>2025-301AC</OBJECT_ID><CENTER_NAME>EARTH</CENTER_NAME><REF_FRAME>TEME</REF_FRAME><TIME_SYSTEM>UTC</TIME_SYSTEM><MEAN_ELEMENT_THEORY>SGP4</MEAN_ELEMENT_THEORY></metadata><data><meanElements><EPOCH>2026-01-25T14:00:01.000224</EPOCH><MEAN_MOTION>14.96256391</MEAN_MOTION><ECCENTRICITY>.00026161</ECCENTRICITY><INCLINATION>51.8911</INCLINATION><RA_OF_ASC_NODE>276.6313</RA_OF_ASC_NODE><ARG_OF_PERICENTER>235.6731</ARG_OF_PERICENTER><MEAN_ANOMALY>234.1201</MEAN_ANOMALY></meanElements><tleParameters><EPHEMERIS_TYPE>0</EPHEMERIS_TYPE><CLASSIFICATION_TYPE>U</CLASSIFICATION_TYPE><NORAD_CAT_ID>67159</NORAD_CAT_ID><ELEMENT_SET_NO>999</ELEMENT_SET_NO><REV_AT_EPOCH>508</REV_AT_EPOCH><BSTAR>.84579449E-3</BSTAR><MEAN_MOTION_DOT>.9408E-4</MEAN_MOTION_DOT><MEAN_MOTION_DDOT>0</MEAN_MOTION_DDOT></tleParameters></data></segment></body></omm>
</ndm>
